STARLINK-3576           
1 51883U 22022AH  26068.18847517 -.00000088  00000+0  12565-4 0  9995
2 51883  53.2199   1.5536 0001460  93.4769 266.6390 15.08833975223160
LEMUR-2-MARHISYAM       
1 60536U 24149BW  26068.74036894  .00013075  00000+0  82973-3 0  9990
2 60536  97.6912 151.2662 0003578 107.3271 252.8349 15.09015520 85478
